1 T0215U          25276.31390866  .00001315  00000-0  90455-3 0  9992
2 T0215  82.5480 135.8103 0017569 347.1456  12.9262 13.98657732297388
1 T0216U          25274.02222672  .00001712  00000-0  51935-2 0  9998
2 T0216  90.3223   9.4309 0034664  93.6424 266.8667 13.05873724274741
1 T0217U          25264.01393595 -.00000302  00000-0 -99555-3 0  9997
2 T0217  83.3254 171.9389 0880407 320.2473  33.7140 12.11652681256636
1 T0218U          25273.71289637  .00026409  00000-0  16084-1 0  9994
2 T0218  98.8583  78.3304 0509123  48.9138 315.4835 13.56438374280522
1 T0219U          25255.65862371 -.00000011  00000-0  21095-3 0  9992
2 T0219 101.9145 234.1130 0029480  33.1611 327.1304 12.56920437264020
1 T0220U          25275.54985124  .00023001  00000-0  64206-2 0  9999
2 T0220  81.2125 206.3018 0025398 130.2384 230.1034 14.45933165301461
1 T0221U          25274.35543695  .00003612  00000-0  11797-1 0  9993
2 T0221  83.1812 152.6592 1037961  55.9169 313.6050 11.85536576251230
1 T0222U          25274.99069939 -.00000437  00000-0 -15723-2 0  9996
2 T0222  90.2530   0.5963 0036596 161.7558 198.4884 12.95402168273431
1 T0223U          25273.95830790 -.00000571  00000-0 -19140-2 0  9999
2 T0223  90.2554 359.5396 0024868 337.8375  22.1670 13.00266237273165
1 T0224U          25273.44804790  .00016205  00000-0  13289-1 0  9991
2 T0224  73.1511 174.8185 0534499 340.5664  17.5714 13.38301230278246
1 T0228U          25275.14536635  .00000074  00000-0  77564-3 0  9999
2 T0228  74.0063  70.0565 0140018  97.2617 264.4359 12.24550720257020
1 T0229U          25275.05482018  .00002028  00000-0  15222-2 0  9998
2 T0229  98.9274 199.9847 0142754 242.4585 116.2010 13.90918906292037
1 T0230U          25267.62510431  .00001126  00000-0  10384-1 0  9996
2 T0230 103.0436 230.9319 0236784 198.5800 160.6487 12.19945872253462
