{
  "timestamp": "2025-10-04T12:28:05.039749",
  "data": [
    {
      "OBJECT_NAME": "UNKNOWN",
      "OBJECT_ID": "",
      "EPOCH": "2025-10-03T07:32:01.708224",
      "MEAN_MOTION": 13.98657732,
      "ECCENTRICITY": 0.00175693,
      "INCLINATION": 82.548,
      "RA_OF_ASC_NODE": 135.8103,
      "ARG_OF_PERICENTER": 347.1456,
      "MEAN_ANOMALY": 12.9262,
      "EPHEMERIS_TYPE": 0,
      "CLASSIFICATION_TYPE": "U",
      "NORAD_CAT_ID": 270215,
      "ELEMENT_SET_NO": 999,
      "REV_AT_EPOCH": 29738,
      "BSTAR": 0.00090455014,
      "MEAN_MOTION_DOT": 1.315e-5,
      "MEAN_MOTION_DDOT": 0
    },
    {
      "OBJECT_NAME": "UNKNOWN",
      "OBJECT_ID": "",
      "EPOCH": "2025-10-01T00:32:00.388608",
      "MEAN_MOTION": 13.05873724,
      "ECCENTRICITY": 0.00346642,
      "INCLINATION": 90.3223,
      "RA_OF_ASC_NODE": 9.4309,
      "ARG_OF_PERICENTER": 93.6424,
      "MEAN_ANOMALY": 266.8667,
      "EPHEMERIS_TYPE": 0,
      "CLASSIFICATION_TYPE": "U",
      "NORAD_CAT_ID": 270216,
      "ELEMENT_SET_NO": 999,
      "REV_AT_EPOCH": 27474,
      "BSTAR": 0.0051934509,
      "MEAN_MOTION_DOT": 1.712e-5,
      "MEAN_MOTION_DDOT": 0
    },
    {
      "OBJECT_NAME": "UNKNOWN",
      "OBJECT_ID": "",
      "EPOCH": "2025-09-21T00:20:04.066080",
      "MEAN_MOTION": 12.11652681,
      "ECCENTRICITY": 0.08804069,
      "INCLINATION": 83.3254,
      "RA_OF_ASC_NODE": 171.9389,
      "ARG_OF_PERICENTER": 320.2473,
      "MEAN_ANOMALY": 33.714,
      "EPHEMERIS_TYPE": 0,
      "CLASSIFICATION_TYPE": "U",
      "NORAD_CAT_ID": 270217,
      "ELEMENT_SET_NO": 999,
      "REV_AT_EPOCH": 25663,
      "BSTAR": -0.00099555196,
      "MEAN_MOTION_DOT": -3.02e-6,
      "MEAN_MOTION_DDOT": 0
    },
    {
      "OBJECT_NAME": "UNKNOWN",
      "OBJECT_ID": "",
      "EPOCH": "2025-09-30T17:06:34.246368",
      "MEAN_MOTION": 13.56438374,
      "ECCENTRICITY": 0.05091227,
      "INCLINATION": 98.8583,
      "RA_OF_ASC_NODE": 78.3304,
      "ARG_OF_PERICENTER": 48.9138,
      "MEAN_ANOMALY": 315.4835,
      "EPHEMERIS_TYPE": 0,
      "CLASSIFICATION_TYPE": "U",
      "NORAD_CAT_ID": 270218,
      "ELEMENT_SET_NO": 999,
      "REV_AT_EPOCH": 28052,
      "BSTAR": 0.016084133,
      "MEAN_MOTION_DOT": 0.00026409,
      "MEAN_MOTION_DDOT": 0
    },
    {
      "OBJECT_NAME": "UNKNOWN",
      "OBJECT_ID": "",
      "EPOCH": "2025-09-12T15:48:25.088544",
      "MEAN_MOTION": 12.56920437,
      "ECCENTRICITY": 0.00294798,
      "INCLINATION": 101.9145,
      "RA_OF_ASC_NODE": 234.113,
      "ARG_OF_PERICENTER": 33.1611,
      "MEAN_ANOMALY": 327.1304,
      "EPHEMERIS_TYPE": 0,
      "CLASSIFICATION_TYPE": "U",
      "NORAD_CAT_ID": 270219,
      "ELEMENT_SET_NO": 999,
      "REV_AT_EPOCH": 26402,
      "BSTAR": 0.00021094627,
      "MEAN_MOTION_DOT": -1.1e-7,
      "MEAN_MOTION_DDOT": 0
    },
    {
      "OBJECT_NAME": "UNKNOWN",
      "OBJECT_ID": "",
      "EPOCH": "2025-10-02T13:11:47.147136",
      "MEAN_MOTION": 14.45933165,
      "ECCENTRICITY": 0.00253976,
      "INCLINATION": 81.2125,
      "RA_OF_ASC_NODE": 206.3018,
      "ARG_OF_PERICENTER": 130.2384,
      "MEAN_ANOMALY": 230.1034,
      "EPHEMERIS_TYPE": 0,
      "CLASSIFICATION_TYPE": "U",
      "NORAD_CAT_ID": 270220,
      "ELEMENT_SET_NO": 999,
      "REV_AT_EPOCH": 30146,
      "BSTAR": 0.0064206312,
      "MEAN_MOTION_DOT": 0.00023001,
      "MEAN_MOTION_DDOT": 0
    },
    {
      "OBJECT_NAME": "UNKNOWN",
      "OBJECT_ID": "",
      "EPOCH": "2025-10-01T08:31:49.752480",
      "MEAN_MOTION": 11.85536576,
      "ECCENTRICITY": 0.10379612,
      "INCLINATION": 83.1812,
      "RA_OF_ASC_NODE": 152.6592,
      "ARG_OF_PERICENTER": 55.9169,
      "MEAN_ANOMALY": 313.605,
      "EPHEMERIS_TYPE": 0,
      "CLASSIFICATION_TYPE": "U",
      "NORAD_CAT_ID": 270221,
      "ELEMENT_SET_NO": 999,
      "REV_AT_EPOCH": 25123,
      "BSTAR": 0.011797117,
      "MEAN_MOTION_DOT": 3.612e-5,
      "MEAN_MOTION_DDOT": 0
    },
    {
      "OBJECT_NAME": "UNKNOWN",
      "OBJECT_ID": "",
      "EPOCH": "2025-10-01T23:46:36.427296",
      "MEAN_MOTION": 12.95402168,
      "ECCENTRICITY": 0.00365962,
      "INCLINATION": 90.253,
      "RA_OF_ASC_NODE": 0.5963,
      "ARG_OF_PERICENTER": 161.7558,
      "MEAN_ANOMALY": 198.4884,
      "EPHEMERIS_TYPE": 0,
      "CLASSIFICATION_TYPE": "U",
      "NORAD_CAT_ID": 270222,
      "ELEMENT_SET_NO": 999,
      "REV_AT_EPOCH": 27343,
      "BSTAR": -0.0015722986,
      "MEAN_MOTION_DOT": -4.37e-6,
      "MEAN_MOTION_DDOT": 0
    },
    {
      "OBJECT_NAME": "UNKNOWN",
      "OBJECT_ID": "",
      "EPOCH": "2025-09-30T22:59:57.802560",
      "MEAN_MOTION": 13.00266237,
      "ECCENTRICITY": 0.00248678,
      "INCLINATION": 90.2554,
      "RA_OF_ASC_NODE": 359.5396,
      "ARG_OF_PERICENTER": 337.8375,
      "MEAN_ANOMALY": 22.167,
      "EPHEMERIS_TYPE": 0,
      "CLASSIFICATION_TYPE": "U",
      "NORAD_CAT_ID": 270223,
      "ELEMENT_SET_NO": 999,
      "REV_AT_EPOCH": 27316,
      "BSTAR": -0.0019140022,
      "MEAN_MOTION_DOT": -5.71e-6,
      "MEAN_MOTION_DDOT": 0
    },
    {
      "OBJECT_NAME": "UNKNOWN",
      "OBJECT_ID": "",
      "EPOCH": "2025-09-30T10:45:11.338560",
      "MEAN_MOTION": 13.3830123,
      "ECCENTRICITY": 0.05344992,
      "INCLINATION": 73.1511,
      "RA_OF_ASC_NODE": 174.8185,
      "ARG_OF_PERICENTER": 340.5664,
      "MEAN_ANOMALY": 17.5714,
      "EPHEMERIS_TYPE": 0,
      "CLASSIFICATION_TYPE": "U",
      "NORAD_CAT_ID": 270224,
      "ELEMENT_SET_NO": 999,
      "REV_AT_EPOCH": 27824,
      "BSTAR": 0.013288866,
      "MEAN_MOTION_DOT": 0.00016205,
      "MEAN_MOTION_DDOT": 0
    },
    {
      "OBJECT_NAME": "UNKNOWN",
      "OBJECT_ID": "",
      "EPOCH": "2025-10-02T03:29:19.652640",
      "MEAN_MOTION": 12.2455072,
      "ECCENTRICITY": 0.0140018,
      "INCLINATION": 74.0063,
      "RA_OF_ASC_NODE": 70.0565,
      "ARG_OF_PERICENTER": 97.2617,
      "MEAN_ANOMALY": 264.4359,
      "EPHEMERIS_TYPE": 0,
      "CLASSIFICATION_TYPE": "U",
      "NORAD_CAT_ID": 270228,
      "ELEMENT_SET_NO": 999,
      "REV_AT_EPOCH": 25702,
      "BSTAR": 0.00077564014,
      "MEAN_MOTION_DOT": 7.4e-7,
      "MEAN_MOTION_DDOT": 0
    },
    {
      "OBJECT_NAME": "UNKNOWN",
      "OBJECT_ID": "",
      "EPOCH": "2025-10-02T01:18:56.463552",
      "MEAN_MOTION": 13.90918906,
      "ECCENTRICITY": 0.01427537,
      "INCLINATION": 98.9274,
      "RA_OF_ASC_NODE": 199.9847,
      "ARG_OF_PERICENTER": 242.4585,
      "MEAN_ANOMALY": 116.201,
      "EPHEMERIS_TYPE": 0,
      "CLASSIFICATION_TYPE": "U",
      "NORAD_CAT_ID": 270229,
      "ELEMENT_SET_NO": 999,
      "REV_AT_EPOCH": 29203,
      "BSTAR": 0.0015221773,
      "MEAN_MOTION_DOT": 2.028e-5,
      "MEAN_MOTION_DDOT": 0
    },
    {
      "OBJECT_NAME": "UNKNOWN",
      "OBJECT_ID": "",
      "EPOCH": "2025-09-24T15:00:09.012384",
      "MEAN_MOTION": 12.19945872,
      "ECCENTRICITY": 0.02367842,
      "INCLINATION": 103.0436,
      "RA_OF_ASC_NODE": 230.9319,
      "ARG_OF_PERICENTER": 198.58,
      "MEAN_ANOMALY": 160.6487,
      "EPHEMERIS_TYPE": 0,
      "CLASSIFICATION_TYPE": "U",
      "NORAD_CAT_ID": 270230,
      "ELEMENT_SET_NO": 999,
      "REV_AT_EPOCH": 25346,
      "BSTAR": 0.01038363,
      "MEAN_MOTION_DOT": 1.126e-5,
      "MEAN_MOTION_DDOT": 0
    }
  ]
}
